#dP2021 11 14  0  0  0.00000000      97 __u+U IGS14 FIT  IAC
## 2184      0.00000000   900.00000000 59532 0.0000000000000
+  123   C02C03C04C05C06C07C08C09C10C11C12C13C14C16C19C20C21
+        C22C23C24C25C26C27C28C29C30C32C33C34C35C36C37C38C39
+        C40C41C42C43C44C45C46C59C60E01E02E03E04E05E07E08E09
+        E11E12E13E14E15E18E19E21E24E25E26E27E30E31E33E36G01
+        G02G03G04G05G06G07G08G09G10G12G13G14G15G16G17G18G19
+        G20G21G22G23G24G25G26G27G28G29G30G31G32J01J02J03J07
+        R01R02R03R04R05R07R08R09R11R12R13R14R15R16R17R18R19
+        R20R21R22R24  0  0  0  0  0  0  0  0  0  0  0  0  0
++        13 14 14 13  9  9 10  9  9  9  9  9  9  9  8  8  8
++         7  8  8  7  7  8  8  7  8  8  8  8  8  7  8  8  8
++         8  8  8  8  8  7  8 20 14  5  5  5  5  6  5  5  6
++         5  5  6  5  5  6  5  6  6  5  6  6  6  6  5  5  4
++         4  4  4  4  4  4  4  4  5  4  4  4  4  4  4  4  4
++         4  4  5  5  5  5  5  4  5  4  4  5  5 10 10 10 16
++         8  7  7  7  7  7  7  7  9  7  8  7  7  8  7  7  8
++         8  7  8  7  0  0  0  0  0  0  0  0  0  0  0  0  0
%c M  cc GPS ccc cccc cccc cccc cccc ccccc ccccc ccccc ccccc
%c cc cc ccc ccc cccc cccc cccc cccc ccccc ccccc ccccc ccccc
%f  1.2500000  1.025000000  0.00000000000  0.000000000000000
%f  0.0000000  0.000000000  0.00000000000  0.000000000000000
%i    0    0    0    0      0      0      0      0         0
%i    0    0    0    0      0      0      0      0         0
/* INFORMATION & ANALYSIS CENTER (IAC)            FINAL DATA
/* S/V CLOCKS ARE ALIGNED TO GNSS TIME                      
/* G:C1WC2W R:C1PC2P E:C1XC5X C:C2IC6I J:C1CC2S             
/* PCV:IGS14_2163 OL/AL:FES2004  NONE     YN ORB:CoN CLK:CoN
*  2021 11 14  3 45  0.00000000
PC02   4434.401589  41957.929717   1000.418248    161.739576
PC03 -14862.675568  39484.240906    453.447023    167.757695
PC04 -39645.303747  14317.006577   -420.226664    156.863179
PC05  21871.673381  36037.140163   1359.562156    301.101855
PC06  -1645.899326  36767.349132  20724.953229    484.483373
PC07 -12437.810031  25275.707307 -31391.793583    240.302751
PC08 -17421.777977  35995.933872  13131.547080   -772.118615
PC09   2812.486107  39880.473061  14415.265610   -265.192346
PC10  -3180.194058  26456.693067 -32438.904886     12.174362
PC11  -3228.931259  22650.702568 -15875.514894    689.313654
PC12 -13999.035977   6304.936544 -23259.817293    724.542939
PC13 -11820.690291  36149.644328  17987.421840    474.457162
PC14  -9456.769252  14054.840101  22197.797895    536.747643
PC16  -4870.600923  34018.943469  24711.476709   -723.320769
PC19  -1978.699105 -16151.122035 -22656.178098    935.593953
PC20  17465.628280 -10468.720493 -19067.377432   -790.609728
PC21 -27589.376132  -1887.337689   3809.170838   -936.458975
PC22 -21002.312631 -12747.265620 -13261.301614   -968.407686
PC23  10261.195364  12892.966965 -22514.538897   -965.810299
PC24 -19482.126091  19677.907190   3314.800455   -961.722465
PC25  -5325.829010  23301.487203 -14387.357033   -825.057616
PC26 -20837.473709   6201.721063  17465.694998    822.100798
PC27  17227.406080   3914.077026  21588.991352    629.134324
PC28  14828.058370  21534.468555   9747.618259     -2.943785
PC29  -4678.817348 -26359.470198   7877.931020    473.999529
PC30   9393.377899 -15749.706123  21027.902009    486.197152
PC32  27600.827623   1731.547126  -3722.000399   -962.243465
PC33   1929.132864  16164.181820  22661.011439   -973.088835
PC34  -8871.662627  16569.392715 -20639.116819   -537.391194
PC35 -15414.355306 -21307.357162  -9294.899731     -0.266401
PC36   6256.452479 -23293.025482  14070.057233   -803.224318
PC37  20725.643972  -4776.098500 -18062.373799   -890.678002
PC38 -22214.078390  35506.132386   3944.818604    189.335992
PC39  -7187.758837  30426.100092  28356.136937     34.000470
PC40 -18444.980597  18419.283710 -33172.628881    217.517673
PC41  20722.191515  12882.144962  13592.016182   -916.309137
PC42 -18283.493606  10074.796836  18558.631289   -944.058517
PC43   4086.303652  26304.125458  -8408.941004   -960.881704
PC44 -17508.192203  -3457.485277 -21452.229548    465.097709
PC45 -10323.128531 -12666.974060  22627.788012    600.293048
PC46  18944.329250 -20412.358189  -2120.375219     -7.243644
PC59 -32257.575478  27116.791824    443.882645 999999.999999
PC60   7303.638616  41510.351506   -775.674163     -0.457789
PE01 -18132.394593  18081.545587 -14831.683608   -516.639145
PE02  18018.856460 -18125.643479  14954.030613    260.156803
PE03   6724.508104 -16169.673648 -23875.518778   -495.742699
PE04  12460.610943  22641.376968  14430.742015   -899.160811
PE05  22313.753918    -69.173037 -19456.427034   -234.129013
PE07 -24706.131767 -15870.634061   3756.514555   -606.814802
PE08 -12954.699982 -22525.780044 -14191.425932   5905.391516
PE09  24807.593018  15639.373757  -3983.483499   5464.355842
PE11  13451.657943  12781.300435  23058.209494   5087.145812
PE12   2383.426852  28008.617668   9287.655631   4911.045363
PE13 -13198.378663 -13335.561596 -22888.588067    423.671104
PE14   2549.790280  23761.709110 -15997.701293  -1639.513238
PE15  -2383.217429 -28025.647364  -9223.381771    781.078861
PE18 -16931.170967 -23461.073686   1803.242056  -1802.041764
PE19  -9021.974763  14427.450460  24216.875227    427.048101
PE21 -27909.261620   9564.673269   2356.912367   -699.429939
PE24  21359.580477   5867.099692 -19654.019626  -1225.129961
PE25  27945.887582  -9429.015482  -2563.181819   -553.483884
PE26 -16273.358407  10205.891517 -22510.787906   1114.390814
PE27 -22117.709299  -4960.877644  19037.438290   -164.411024
PE30  -1970.969847 -16934.029176  24196.963745    -28.401660
PE31   3385.025159  16432.847644 -24372.311846   -488.042290
PE33  -9788.858691  26150.656876  -9812.006991   -462.577648
PE36  16205.177899  -9129.133031  23033.122085   -289.827416
PG01  13600.351583 -19828.740315  10621.986323    511.450450
PG02 -14876.667721  -1156.120207 -21322.952070   -641.900420
PG03  20259.655074 -12797.435937 -11452.036744    -13.017231
PG04   9898.387519 -11709.759736 -21682.709854   -201.894838
PG05 -26012.806594   5040.296945  -2952.849022    -60.995466
PG06  -7854.411727 -16930.810794 -18807.804326    117.388945
PG07   4743.141479 -25570.955025   4236.704553    277.679995
PG08  17944.770885  -1074.129377  19646.245873    -44.070802
PG09  -1454.386490 -19662.343537 -17857.204243   -361.724037
PG10   8843.928277  13039.804800  21547.071843   -245.652774
PG12 -22011.445626  10718.235087 -10380.035280   -126.017183
PG13 -19370.519937  -7679.404447  16406.806530    214.279117
PG14  -8111.126001 -13747.093755  21235.224565    -37.851155
PG15 -17842.498343   3642.851575  19039.907071   -106.636720
PG16  26278.472747    117.062966  -5561.778423   -423.761329
PG17 -11725.805647 -22571.777495   8045.178526    533.360178
PG18  -4677.796741  25597.944900   5040.640694    295.925767
PG19 -16914.768424 -20552.896637  -1622.915797     78.965207
PG20 -22859.864897  -1240.988101 -13259.723515    518.135956
PG21  15699.871992 -11918.353372  18210.367034    150.937265
PG22  24054.178125 -10584.478436  -2802.046847   -465.352048
PG23  -4391.652918  15968.450910  20724.733357     33.235201
PG24 -14469.366930  16618.551305  14253.502826    266.762760
PG25 -12259.688338  15702.578784 -17697.404965    240.242339
PG26  19340.239622   7286.705293 -16906.319013    155.119409
PG27  21121.312194   9261.309578  13319.338259   -218.900141
PG28 -15051.381786 -11219.568893  19245.649496    463.268361
PG29  -3269.816433  17183.328797 -20005.715164   -440.295654
PG30  -2936.477103 -22697.400834  13341.469680   -491.162086
PG31   9869.069909  14690.425087 -19767.168522   -150.041292
PG32  15837.488150  21028.832833   4324.779517    -21.735243
PJ01 -29215.768825  19933.937216  27924.888958    136.599467
PJ02 -35173.895318  21033.316881  -5411.786382     -0.099655
PJ03 -19691.510629  25970.543343 -22147.696739     -6.217371
PJ07 -25401.634647  33644.309797     35.663562      1.338548
PR01  19364.007275  12272.259118  11170.382670     88.094057
PR02  23544.441704   4302.395243  -8883.896841    500.001972
PR03  12777.215819  -6067.894984 -21206.777193     46.408541
PR04  -5073.911957 -12638.123484 -21545.814434    114.116546
PR05 -19971.223807 -12373.461754  -9897.275182     82.431774
PR07 -12038.698717   6495.624307  21547.407749    -39.968976
PR08   5145.179827  12777.521385  21522.784521    -62.005850
PR09 -19761.624369   7928.592634  14118.042205     23.460248
PR11  -7122.598146  17116.579426 -17513.348560     50.024579
PR12   9255.798728   6445.375831 -22852.437227    278.254963
PR13  19340.351412  -7269.668119 -14974.002454    -63.514154
PR14  18436.322889 -17411.070868   2715.709663     71.000265
PR15   6678.469995 -16869.001523  17952.943355    100.206733
PR16 -10406.706289  -5466.040526  22604.714843    -24.937488
PR17   5962.605778 -16095.743640  18901.412788    474.740854
PR18  -1904.427302 -24962.938363   4788.881076     97.116716
PR19  -7914.059981 -21585.695876 -11058.598936   -166.918695
PR20 -10688.440210  -3225.046626 -22919.565371    -59.313783
PR21  -5407.340565  17131.719039 -18088.437660   -254.421195
PR22   2253.902092  25173.065113  -3789.643134   -145.046971
PR24  11161.754751   2164.055897  22852.988971     66.871200
EOF
